[{"OBJECT_NAME":"PRAETORIAN SDA_612","OBJECT_ID":"2025-203L","EPOCH":"2026-03-09T13:43:36.491232","MEAN_MOTION":13.85044175,"ECCENTRICITY":0.0010579,"INCLINATION":81.2999,"RA_OF_ASC_NODE":102.9075,"ARG_OF_PERICENTER":103.1704,"MEAN_ANOMALY":257.0635,"EPHEMERIS_TYPE":0,"CLASSIFICATION_TYPE":"U","NORAD_CAT_ID":65575,"ELEMENT_SET_NO":999,"REV_AT_EPOCH":2492,"BSTAR":0.00017898,"MEAN_MOTION_DOT":2.14e-6,"MEAN_MOTION_DDOT":0},{"OBJECT_NAME":"COSMOS 2251 DEB","OBJECT_ID":"1993-036ASW","EPOCH":"2026-03-07T21:05:47.842080","MEAN_MOTION":13.88818808,"ECCENTRICITY":0.02510577,"INCLINATION":73.8423,"RA_OF_ASC_NODE":262.3964,"ARG_OF_PERICENTER":333.0208,"MEAN_ANOMALY":25.8043,"EPHEMERIS_TYPE":0,"CLASSIFICATION_TYPE":"U","NORAD_CAT_ID":35824,"ELEMENT_SET_NO":999,"REV_AT_EPOCH":85409,"BSTAR":0.0011777268,"MEAN_MOTION_DOT":1.804e-5,"MEAN_MOTION_DDOT":0}]
